OBJECT_NAME,OBJECT_ID,EPOCH,MEAN_MOTION,ECCENTRICITY,INCLINATION,RA_OF_ASC_NODE,ARG_OF_PERICENTER,MEAN_ANOMALY,EPHEMERIS_TYPE,CLASSIFICATION_TYPE,NORAD_CAT_ID,ELEMENT_SET_NO,REV_AT_EPOCH,BSTAR,MEAN_MOTION_DOT,MEAN_MOTION_DDOT
GLOBALSTAR M069,2007-020C,2026-07-02T19:40:55.508160,12.23471712,.0001969,52.0000,207.8792,182.7585,348.3352,0,U,31573,999,88071,.11686E-3,-.8E-6,0
GLOBALSTAR M072,2007-020D,2026-07-02T15:28:00.341760,11.91658517,.0001574,51.9940,59.0944,9.1170,16.5320,0,U,31574,999,87682,.27745E-3,-.64E-6,0
GLOBALSTAR M066,2007-048C,2026-07-02T20:17:50.721216,12.30387691,.0005672,51.9600,12.9617,76.3186,28.1104,0,U,32265,999,86215,-.21912E-4,-.97E-6,0
GLOBALSTAR M079,2010-054A,2026-07-02T10:37:52.888800,12.62266386,.0001015,52.0045,62.2295,55.7952,115.3468,0,U,37188,999,72447,.12812E-3,-.81E-6,0
GLOBALSTAR M074,2010-054B,2026-07-02T20:17:09.760704,12.62261843,.0000796,52.0027,60.2675,74.0158,6.2004,0,U,37189,999,72513,.83344E-4,-.89E-6,0
GLOBALSTAR M076,2010-054C,2026-07-02T20:55:35.344704,12.62262034,.0001015,52.0036,60.3909,70.4436,10.9926,0,U,37190,999,72485,.12852E-3,-.81E-6,0
GLOBALSTAR M077,2010-054D,2026-07-02T15:27:46.630944,11.67547928,.000248,51.9935,140.0623,201.2549,329.5141,0,U,37191,999,72294,-.1796E-3,-.88E-6,0
GLOBALSTAR M075,2010-054E,2026-07-02T19:00:13.379328,12.62267531,.0000522,51.9946,102.6802,43.2347,334.2146,0,U,37192,999,72391,.10173E-3,-.86E-6,0
GLOBALSTAR M073,2010-054F,2026-07-02T18:59:15.556128,12.62266761,.0001107,52.0076,16.7948,77.3573,295.4503,0,U,37193,999,72590,.2396E-4,-.99E-6,0
GLOBALSTAR M083,2011-033A,2026-07-02T20:05:40.519392,12.62263818,.000094,51.9878,324.8616,90.8821,72.9676,0,U,37739,999,69492,.14975E-3,-.77E-6,0
GLOBALSTAR M088,2011-033B,2026-07-02T13:46:09.577344,12.62269222,.0000335,52.0194,232.1306,149.0966,15.0862,0,U,37740,999,69043,.13612E-3,-.79E-6,0
GLOBALSTAR M091,2011-033C,2026-07-02T17:55:31.791936,12.62264139,.0000102,51.9965,194.5448,346.7556,185.5197,0,U,37741,999,69124,-.75438E-4,-.117E-5,0
GLOBALSTAR M085,2011-033D,2026-07-02T20:36:09.623808,12.62264202,.0000483,52.0106,145.5097,11.6411,7.8258,0,U,37742,999,69177,-.27113E-4,-.109E-5,0
GLOBALSTAR M081,2011-033E,2026-07-02T21:15:57.548736,12.62265317,.0000381,51.9936,147.8439,38.6225,346.2522,0,U,37743,999,69192,-.29077E-4,-.109E-5,0
GLOBALSTAR M089,2011-033F,2026-07-02T18:25:11.084160,12.62267463,.0000564,51.9927,102.3613,79.9205,306.7830,0,U,37744,999,69275,.10282E-3,-.85E-6,0
GLOBALSTAR M084,2011-080A,2026-07-02T19:28:15.550176,12.62267693,.000106,52.0026,329.7172,111.2971,54.4628,0,U,38040,999,67073,.50703E-4,-.95E-6,0
GLOBALSTAR M080,2011-080B,2026-07-02T20:40:30.906048,12.62265375,.0000441,52.0078,331.2881,81.0392,82.9213,0,U,38041,999,67086,.39045E-6,-.104E-5,0
GLOBALSTAR M082,2011-080C,2026-07-02T17:14:41.714304,12.62263848,.0000383,52.0081,287.2267,111.1723,52.7414,0,U,38042,999,67155,.15027E-3,-.77E-6,0
GLOBALSTAR M092,2011-080D,2026-07-02T19:39:19.193760,12.62267382,.0000847,52.0100,17.3181,86.5780,293.1501,0,U,38043,999,67002,.10372E-3,-.85E-6,0
GLOBALSTAR M090,2011-080E,2026-07-02T13:17:06.313920,12.62252560,.0000524,52.0133,281.6896,105.7704,267.0066,0,U,38044,999,67165,-.73109E-4,-.117E-5,0
GLOBALSTAR M086,2011-080F,2026-07-02T18:26:27.743424,12.62287504,.0001674,51.9900,280.9397,93.1440,78.7299,0,U,38045,999,67162,.23762E-3,-.61E-6,0
GLOBALSTAR M097,2013-005A,2026-07-02T18:17:33.437184,12.62271336,.0000164,52.0014,195.9248,48.5773,311.5108,0,U,39072,999,61887,-.33069E-4,-.11E-5,0
GLOBALSTAR M093,2013-005B,2026-07-02T17:38:56.141664,12.62266219,.0000343,52.0073,189.3583,32.5888,327.5000,0,U,39073,999,61882,-.39899E-4,-.111E-5,0
GLOBALSTAR M094,2013-005C,2026-07-02T19:32:45.309120,12.62268458,.0000777,51.9959,103.2189,38.2636,321.8286,0,U,39074,999,62044,.36725E-4,-.97E-6,0
GLOBALSTAR M096,2013-005D,2026-07-02T14:10:08.864832,12.62265644,.0000427,52.0050,152.7140,15.1031,344.9848,0,U,39075,999,61933,-.90594E-4,-.12E-5,0
GLOBALSTAR M078,2013-005E,2026-07-02T11:37:21.792864,12.62260201,.0000535,51.9855,237.0279,296.7741,63.3071,0,U,39076,999,61794,.35164E-3,-.41E-6,0
GLOBALSTAR M095,2013-005F,2026-07-02T19:51:55.471104,12.62263881,.0000126,52.0061,233.6079,4.2618,355.8249,0,U,39077,999,61784,.10932E-3,-.84E-6,0
GLOBALSTAR M087,2022-064A,2026-07-02T04:58:41.126016,12.62269302,.000093,52.0011,16.7246,66.5498,293.5466,0,U,52888,999,19303,.1981E-4,-.1E-5,0
